CCSDS_OMM_VERS = 2.0
CREATION_DATE  = 
ORIGINATOR     = 

OBJECT_NAME    = UNKNOWN
OBJECT_ID      = 
CENTER_NAME    = EARTH
REF_FRAME      = TEME
TIME_SYSTEM    = UTC
MEAN_ELEMENT_THEORY = SGP/SGP4

EPOCH          = 2026-03-20T11:10:13.157184
MEAN_MOTION    = 12.83409759
ECCENTRICITY   = .03830527
INCLINATION    = 63.2063
RA_OF_ASC_NODE = 144.2528
ARG_OF_PERICENTER = 24.1548
MEAN_ANOMALY   = 337.6890

EPHEMERIS_TYPE = 0
CLASSIFICATION_TYPE = U
NORAD_CAT_ID   = 270261
ELEMENT_SET_NO = 999
REV_AT_EPOCH   = 28278
BSTAR          = .35607758E-3
MEAN_MOTION_DOT = .39E-6
MEAN_MOTION_DDOT = 0

CCSDS_OMM_VERS = 2.0
CREATION_DATE  = 
ORIGINATOR     = 

OBJECT_NAME    = UNKNOWN
OBJECT_ID      = 
CENTER_NAME    = EARTH
REF_FRAME      = TEME
TIME_SYSTEM    = UTC
MEAN_ELEMENT_THEORY = SGP/SGP4

EPOCH          = 2026-03-21T01:41:45.689280
MEAN_MOTION    = 12.95615248
ECCENTRICITY   = .00344591
INCLINATION    = 90.2514
RA_OF_ASC_NODE = 7.2991
ARG_OF_PERICENTER = 43.5692
MEAN_ANOMALY   = 316.8140

EPHEMERIS_TYPE = 0
CLASSIFICATION_TYPE = U
NORAD_CAT_ID   = 270262
ELEMENT_SET_NO = 999
REV_AT_EPOCH   = 28486
BSTAR          = .74415747E-3
MEAN_MOTION_DOT = .218E-5
MEAN_MOTION_DDOT = 0

CCSDS_OMM_VERS = 2.0
CREATION_DATE  = 
ORIGINATOR     = 

OBJECT_NAME    = UNKNOWN
OBJECT_ID      = 
CENTER_NAME    = EARTH
REF_FRAME      = TEME
TIME_SYSTEM    = UTC
MEAN_ELEMENT_THEORY = SGP/SGP4

EPOCH          = 2026-03-24T01:34:45.650496
MEAN_MOTION    = 13.15596545
ECCENTRICITY   = .00196455
INCLINATION    = 82.5491
RA_OF_ASC_NODE = 205.1583
ARG_OF_PERICENTER = 128.5478
MEAN_ANOMALY   = 231.7408

EPHEMERIS_TYPE = 0
CLASSIFICATION_TYPE = U
NORAD_CAT_ID   = 270264
ELEMENT_SET_NO = 999
REV_AT_EPOCH   = 28946
BSTAR          = .44861089E-3
MEAN_MOTION_DOT = .182E-5
MEAN_MOTION_DDOT = 0

CCSDS_OMM_VERS = 2.0
CREATION_DATE  = 
ORIGINATOR     = 

OBJECT_NAME    = UNKNOWN
OBJECT_ID      = 
CENTER_NAME    = EARTH
REF_FRAME      = TEME
TIME_SYSTEM    = UTC
MEAN_ELEMENT_THEORY = SGP/SGP4

EPOCH          = 2026-03-19T14:49:35.749632
MEAN_MOTION    = 12.57036289
ECCENTRICITY   = .01447413
INCLINATION    = 82.4185
RA_OF_ASC_NODE = 200.8436
ARG_OF_PERICENTER = 155.0323
MEAN_ANOMALY   = 205.7858

EPHEMERIS_TYPE = 0
CLASSIFICATION_TYPE = U
NORAD_CAT_ID   = 270266
ELEMENT_SET_NO = 999
REV_AT_EPOCH   = 27442
BSTAR          = .22959285E-1
MEAN_MOTION_DOT = .3994E-4
MEAN_MOTION_DDOT = 0

CCSDS_OMM_VERS = 2.0
CREATION_DATE  = 
ORIGINATOR     = 

OBJECT_NAME    = UNKNOWN
OBJECT_ID      = 
CENTER_NAME    = EARTH
REF_FRAME      = TEME
TIME_SYSTEM    = UTC
MEAN_ELEMENT_THEORY = SGP/SGP4

EPOCH          = 2026-03-21T01:46:04.764864
MEAN_MOTION    = 12.96387814
ECCENTRICITY   = .00298156
INCLINATION    = 90.2446
RA_OF_ASC_NODE = 4.7090
ARG_OF_PERICENTER = 6.6584
MEAN_ANOMALY   = 353.4927

EPHEMERIS_TYPE = 0
CLASSIFICATION_TYPE = U
NORAD_CAT_ID   = 270267
ELEMENT_SET_NO = 999
REV_AT_EPOCH   = 28513
BSTAR          = .80940149E-3
MEAN_MOTION_DOT = .239E-5
MEAN_MOTION_DDOT = 0

CCSDS_OMM_VERS = 2.0
CREATION_DATE  = 
ORIGINATOR     = 

OBJECT_NAME    = UNKNOWN
OBJECT_ID      = 
CENTER_NAME    = EARTH
REF_FRAME      = TEME
TIME_SYSTEM    = UTC
MEAN_ELEMENT_THEORY = SGP/SGP4

EPOCH          = 2026-03-07T12:45:02.816640
MEAN_MOTION    = 12.98388298
ECCENTRICITY   = .00291302
INCLINATION    = 90.2480
RA_OF_ASC_NODE = 6.5273
ARG_OF_PERICENTER = 327.2014
MEAN_ANOMALY   = 32.7298

EPHEMERIS_TYPE = 0
CLASSIFICATION_TYPE = U
NORAD_CAT_ID   = 270268
ELEMENT_SET_NO = 999
REV_AT_EPOCH   = 28348
BSTAR          = .1301745E-2
MEAN_MOTION_DOT = .391E-5
MEAN_MOTION_DDOT = 0

CCSDS_OMM_VERS = 2.0
CREATION_DATE  = 
ORIGINATOR     = 

OBJECT_NAME    = UNKNOWN
OBJECT_ID      = 
CENTER_NAME    = EARTH
REF_FRAME      = TEME
TIME_SYSTEM    = UTC
MEAN_ELEMENT_THEORY = SGP/SGP4

EPOCH          = 2026-03-23T22:53:54.043872
MEAN_MOTION    = 13.30561917
ECCENTRICITY   = .00845036
INCLINATION    = 82.5878
RA_OF_ASC_NODE = 169.5765
ARG_OF_PERICENTER = 171.7645
MEAN_ANOMALY   = 188.4896

EPHEMERIS_TYPE = 0
CLASSIFICATION_TYPE = U
NORAD_CAT_ID   = 270269
ELEMENT_SET_NO = 999
REV_AT_EPOCH   = 29230
BSTAR          = .5633816E-3
MEAN_MOTION_DOT = .284E-5
MEAN_MOTION_DDOT = 0

CCSDS_OMM_VERS = 2.0
CREATION_DATE  = 
ORIGINATOR     = 

OBJECT_NAME    = UNKNOWN
OBJECT_ID      = 
CENTER_NAME    = EARTH
REF_FRAME      = TEME
TIME_SYSTEM    = UTC
MEAN_ELEMENT_THEORY = SGP/SGP4

EPOCH          = 2026-03-24T01:34:56.343360
MEAN_MOTION    = 12.98352852
ECCENTRICITY   = .00291177
INCLINATION    = 90.2535
RA_OF_ASC_NODE = 10.4329
ARG_OF_PERICENTER = 258.6278
MEAN_ANOMALY   = 101.1572

EPHEMERIS_TYPE = 0
CLASSIFICATION_TYPE = U
NORAD_CAT_ID   = 270274
ELEMENT_SET_NO = 999
REV_AT_EPOCH   = 28520
BSTAR          = -.42999188E-3
MEAN_MOTION_DOT = -.119E-5
MEAN_MOTION_DDOT = 0

CCSDS_OMM_VERS = 2.0
CREATION_DATE  = 
ORIGINATOR     = 

OBJECT_NAME    = UNKNOWN
OBJECT_ID      = 
CENTER_NAME    = EARTH
REF_FRAME      = TEME
TIME_SYSTEM    = UTC
MEAN_ELEMENT_THEORY = SGP/SGP4

EPOCH          = 2026-03-23T23:12:01.460448
MEAN_MOTION    = 13.93335247
ECCENTRICITY   = .0293029
INCLINATION    = 86.4350
RA_OF_ASC_NODE = 345.7522
ARG_OF_PERICENTER = 251.9278
MEAN_ANOMALY   = 104.9775

EPHEMERIS_TYPE = 0
CLASSIFICATION_TYPE = U
NORAD_CAT_ID   = 270275
ELEMENT_SET_NO = 999
REV_AT_EPOCH   = 3156
BSTAR          = .37846782E-2
MEAN_MOTION_DOT = .7064E-4
MEAN_MOTION_DDOT = 0

CCSDS_OMM_VERS = 2.0
CREATION_DATE  = 
ORIGINATOR     = 

OBJECT_NAME    = UNKNOWN
OBJECT_ID      = 
CENTER_NAME    = EARTH
REF_FRAME      = TEME
TIME_SYSTEM    = UTC
MEAN_ELEMENT_THEORY = SGP/SGP4

EPOCH          = 2026-03-24T01:19:29.400960
MEAN_MOTION    = 12.93756970
ECCENTRICITY   = .00318775
INCLINATION    = 90.2304
RA_OF_ASC_NODE = 2.0639
ARG_OF_PERICENTER = 32.9453
MEAN_ANOMALY   = 327.3643

EPHEMERIS_TYPE = 0
CLASSIFICATION_TYPE = U
NORAD_CAT_ID   = 270279
ELEMENT_SET_NO = 999
REV_AT_EPOCH   = 28284
BSTAR          = -.18967192E-2
MEAN_MOTION_DOT = -.516E-5
MEAN_MOTION_DDOT = 0

CCSDS_OMM_VERS = 2.0
CREATION_DATE  = 
ORIGINATOR     = 

OBJECT_NAME    = UNKNOWN
OBJECT_ID      = 
CENTER_NAME    = EARTH
REF_FRAME      = TEME
TIME_SYSTEM    = UTC
MEAN_ELEMENT_THEORY = SGP/SGP4

EPOCH          = 2026-03-22T12:43:34.616928
MEAN_MOTION    = 12.96973636
ECCENTRICITY   = .00265631
INCLINATION    = 90.2456
RA_OF_ASC_NODE = 5.3007
ARG_OF_PERICENTER = 237.4352
MEAN_ANOMALY   = 122.4203

EPHEMERIS_TYPE = 0
CLASSIFICATION_TYPE = U
NORAD_CAT_ID   = 270280
ELEMENT_SET_NO = 999
REV_AT_EPOCH   = 28348
BSTAR          = .12313483E-2
MEAN_MOTION_DOT = .363E-5
MEAN_MOTION_DDOT = 0

CCSDS_OMM_VERS = 2.0
CREATION_DATE  = 
ORIGINATOR     = 

OBJECT_NAME    = UNKNOWN
OBJECT_ID      = 
CENTER_NAME    = EARTH
REF_FRAME      = TEME
TIME_SYSTEM    = UTC
MEAN_ELEMENT_THEORY = SGP/SGP4

EPOCH          = 2026-03-20T17:36:20.710656
MEAN_MOTION    = 12.32641691
ECCENTRICITY   = .00382879
INCLINATION    = 82.5040
RA_OF_ASC_NODE = 262.3871
ARG_OF_PERICENTER = 93.7854
MEAN_ANOMALY   = 266.7599

EPHEMERIS_TYPE = 0
CLASSIFICATION_TYPE = U
NORAD_CAT_ID   = 270281
ELEMENT_SET_NO = 999
REV_AT_EPOCH   = 26804
BSTAR          = .86879705E-2
MEAN_MOTION_DOT = .1067E-4
MEAN_MOTION_DDOT = 0

CCSDS_OMM_VERS = 2.0
CREATION_DATE  = 
ORIGINATOR     = 

OBJECT_NAME    = UNKNOWN
OBJECT_ID      = 
CENTER_NAME    = EARTH
REF_FRAME      = TEME
TIME_SYSTEM    = UTC
MEAN_ELEMENT_THEORY = SGP/SGP4

EPOCH          = 2026-03-21T20:16:26.490720
MEAN_MOTION    = 12.25640425
ECCENTRICITY   = .04786066
INCLINATION    = 82.7586
RA_OF_ASC_NODE = 116.3393
ARG_OF_PERICENTER = 185.4812
MEAN_ANOMALY   = 174.0910

EPHEMERIS_TYPE = 0
CLASSIFICATION_TYPE = U
NORAD_CAT_ID   = 270282
ELEMENT_SET_NO = 999
REV_AT_EPOCH   = 26984
BSTAR          = .14699263E-2
MEAN_MOTION_DOT = .247E-5
MEAN_MOTION_DDOT = 0

CCSDS_OMM_VERS = 2.0
CREATION_DATE  = 
ORIGINATOR     = 

OBJECT_NAME    = UNKNOWN
OBJECT_ID      = 
CENTER_NAME    = EARTH
REF_FRAME      = TEME
TIME_SYSTEM    = UTC
MEAN_ELEMENT_THEORY = SGP/SGP4

EPOCH          = 2026-03-22T22:15:32.411808
MEAN_MOTION    = 12.96098965
ECCENTRICITY   = .01865761
INCLINATION    = 82.7011
RA_OF_ASC_NODE = 313.6085
ARG_OF_PERICENTER = 7.2792
MEAN_ANOMALY   = 353.0959

EPHEMERIS_TYPE = 0
CLASSIFICATION_TYPE = U
NORAD_CAT_ID   = 270284
ELEMENT_SET_NO = 999
REV_AT_EPOCH   = 28024
BSTAR          = .90650764E-2
MEAN_MOTION_DOT = .2805E-4
MEAN_MOTION_DDOT = 0

CCSDS_OMM_VERS = 2.0
CREATION_DATE  = 
ORIGINATOR     = 

OBJECT_NAME    = UNKNOWN
OBJECT_ID      = 
CENTER_NAME    = EARTH
REF_FRAME      = TEME
TIME_SYSTEM    = UTC
MEAN_ELEMENT_THEORY = SGP/SGP4

EPOCH          = 2026-03-21T05:23:49.768512
MEAN_MOTION    = 13.03366816
ECCENTRICITY   = .01956326
INCLINATION    = 101.8191
RA_OF_ASC_NODE = 65.1385
ARG_OF_PERICENTER = 24.2157
MEAN_ANOMALY   = 336.7990

EPHEMERIS_TYPE = 0
CLASSIFICATION_TYPE = U
NORAD_CAT_ID   = 270286
ELEMENT_SET_NO = 999
REV_AT_EPOCH   = 2678
BSTAR          = .3134933E-2
MEAN_MOTION_DOT = .1033E-4
MEAN_MOTION_DDOT = 0

CCSDS_OMM_VERS = 2.0
CREATION_DATE  = 
ORIGINATOR     = 

OBJECT_NAME    = UNKNOWN
OBJECT_ID      = 
CENTER_NAME    = EARTH
REF_FRAME      = TEME
TIME_SYSTEM    = UTC
MEAN_ELEMENT_THEORY = SGP/SGP4

EPOCH          = 2026-03-19T12:14:17.653056
MEAN_MOTION    = 12.95807150
ECCENTRICITY   = .00332234
INCLINATION    = 90.2453
RA_OF_ASC_NODE = 4.2193
ARG_OF_PERICENTER = 6.2977
MEAN_ANOMALY   = 353.8554

EPHEMERIS_TYPE = 0
CLASSIFICATION_TYPE = U
NORAD_CAT_ID   = 270288
ELEMENT_SET_NO = 999
REV_AT_EPOCH   = 28265
BSTAR          = -.72506399E-3
MEAN_MOTION_DOT = -.199E-5
MEAN_MOTION_DDOT = 0

